# From MPC106342
C/1995 O1 (Hale-Bopp),e,89.0555,283.2215,130.5026,178.5125,0.0004132,0.99495332,0.0000,03/29.7426/1997,2000,g -2.0,4.0
# From MPEC 2021-J28
C/2010 U3 (Boattini),e,55.5278,43.0222,88.0628,2291,0.0000090,0.99631402,0.0000,02/25.6293/2019,2000,g  1.0,4.0
# From MPEC 2021-J28
C/2011 KP36 (Spacewatch),e,18.9859,173.2803,180.7038,38.99860,0.0040470,0.87484118,7.3529,05/19.0/2021,2000,g  4.5,4.0
# From MPEC 2021-J28
C/2014 B1 (Schwartz),e,28.4092,161.4181,345.7402,6190,0.0000020,0.99845702,0.0000,09/08.1175/2017,2000,g  4.0,4.0
# From MPEC 2021-J28
C/2014 OE4 (PANSTARRS),h,12/12.9722/2016,81.3018,240.4213,65.8900,1.003161,6.249597,2000,11.0,2.0
# From MPEC 2021-J28
C/2015 XY1 (Lemmon),h,04/27.2405/2018,148.8538,281.6158,196.2037,1.002150,7.923145,2000,5.5,4.0
# From MPEC 2021-J28
C/2016 Q2 (PANSTARRS),h,05/11.8796/2021,109.3882,322.2958,84.5280,1.000679,7.081933,2000,6.0,4.0
# From MPEC 2021-J28
C/2017 K2 (PANSTARRS),h,12/19.7592/2022,87.5519,88.2457,236.1875,1.000553,1.797629,2000,1.5,4.0
# From MPEC 2021-J28
C/2017 M4 (ATLAS),h,01/17.9305/2019,105.6486,65.8892,167.6035,1.001342,3.253317,2000,6.0,4.0
# From MPEC 2021-J28
C/2017 T2 (PANSTARRS),e,57.2259,64.3769,92.9999,2845,0.0000065,0.99943206,0.0000,05/04.9240/2020,2000,g  5.0,4.0
# From MPEC 2021-J28
C/2017 U7 (PANSTARRS),h,09/14.1419/2019,142.5907,276.2446,326.3152,1.000523,6.423294,2000,8.3,2.0
# From MPEC 2021-J28
C/2017 Y2 (PANSTARRS),h,11/04.7673/2020,128.4114,65.9943,147.8947,1.000754,4.632254,2000,15.0,4.0
# From MPEC 2021-J28
C/2018 B1 (Lemmon),h,03/29.2640/2018,162.4202,133.1907,68.3157,1.000549,5.117458,2000,9.0,4.0
# From MPEC 2021-J28
C/2018 DO4 (Lemmon),e,160.4692,251.2286,176.1304,25.70999,0.0075605,0.90625970,4.8374,05/19.0/2021,2000,g 11.0,4.0
# From MPEC 2021-J28
C/2018 F4 (PANSTARRS),h,12/04.1074/2019,78.0912,26.5146,263.2293,1.001210,3.440690,2000,11.0,6.0
# From MPEC 2021-J28
C/2018 N2 (ASASSN),h,11/10.9835/2019,77.5305,25.2382,24.4086,1.000160,3.124937,2000,6.0,4.0
# From MPEC 2021-J28
C/2018 U1 (Lemmon),h,11/02.9430/2021,108.2967,75.4805,180.4464,1.001277,4.993130,2000,5.0,4.0
# From MPEC 2021-J28
C/2019 C1 (ATLAS),e,36.0290,212.3868,319.1802,728.5014,0.0000501,0.99096635,0.0000,05/05.4630/2020,2000,g 10.0,4.0
# From MPEC 2021-J28
C/2019 D1 (Flewelling),e,34.0721,231.7123,70.5417,142.1032,0.0005818,0.98888541,0.0000,05/11.8677/2019,2000,g 13.0,4.0
# From MPEC 2021-J28
C/2019 F1 (ATLAS-Africano),h,06/22.8477/2021,54.1750,38.7252,251.1278,1.003666,3.595703,2000,5.5,4.0
# From MPEC 2021-J28
C/2019 K4 (Ye),e,105.3006,180.1584,139.7760,1436,0.0000181,0.99842570,0.0000,06/16.2368/2019,2000,g 12.5,4.0
# From MPEC 2021-J28
C/2019 K7 (Smith),e,103.5421,307.9294,27.3200,60410,0.0000001,0.99992591,0.0000,06/17.0413/2020,2000,g  6.0,4.0
# From NK 1615
P/1996 R2 (Lagerkvist),e,2.6004,40.0235,333.3218,3.775025,0.1343768,0.31418134,111.1564,05/19.0/2021,2000,g 11.5,4.0
# From MPC 30063
P/1997 B1 (Kobayashi),e,12.3395,328.8821,183.3404,8.573770,0.0392596,0.76021308,347.6818,05/19.0/2021,2000,g 15.0,2.0
# From MPC 75703
P/1998 VS24 (LINEAR),e,5.0259,159.0343,244.6335,4.528524,0.1022749,0.24223000,124.4556,05/19.0/2021,2000,g 13.0,2.0
# From NK 731
P/1999 RO28 (LONEOS),e,7.5672,137.8852,231.2648,3.426731,0.1553760,0.67219754,107.6409,05/19.0/2021,2000,g 20.0,2.0
# From MPC 75704
P/1999 XN120 (Catalina),e,5.0297,285.2962,161.8445,4.179023,0.1153698,0.21024149,166.0277,05/19.0/2021,2000,g 13.5,2.0
# From NK 744
P/2000 R2 (LINEAR),e,11.6858,160.2888,176.5360,3.466578,0.1527048,0.53160101,107.1224,05/19.0/2021,2000,g 18.0,4.0
# From MPC 43019
P/2001 H5 (NEAT),e,8.3669,328.6835,224.8520,6.097825,0.0654548,0.59846314,133.5003,05/19.0/2021,2000,g 12.0,4.0
# From MPC 75704
P/2001 Q6 (NEAT),e,56.9075,22.1515,42.9336,7.952970,0.0439451,0.82294169,315.3585,05/19.0/2021,2000,g 13.5,4.0
# From MPC 47727
P/2002 EJ57 (LINEAR),e,4.9762,330.3256,167.3621,6.471049,0.0598745,0.59248011,63.8207,05/19.0/2021,2000,g 12.5,4.0
# From MPC109588
P/2002 T6 (NEAT-LINEAR),e,10.8360,206.3047,219.6565,7.681263,0.0462972,0.56056400,306.2702,05/19.0/2021,2000,g 10.5,4.0
# From MPC 75007
C/2002 VQ94 (LINEAR),e,70.6012,35.0467,100.1318,185.2371,0.0003909,0.96312442,2.1856,05/19.0/2021,2000,g  9.5,2.0
# From MPC 50354
P/2003 F2 (NEAT),e,11.6054,359.0412,192.0593,6.497552,0.0595086,0.54232706,32.9311,05/19.0/2021,2000,g 16.5,2.0
# From MPC 50139
P/2003 QX29 (NEAT),e,11.3900,264.5720,37.4760,8.028466,0.0433267,0.47299345,293.3088,05/19.0/2021,2000,g  8.5,4.0
# From MPC105235
P/2003 T12 (SOHO),e,11.0189,174.5755,219.7591,2.586013,0.2370052,0.76973064,89.3775,05/19.0/2021,2000,g 17.0,4.0
# From MPC 82312
P/2004 A1 (LONEOS),e,10.5516,124.8474,21.3231,7.959921,0.0438875,0.30932615,268.9891,05/19.0/2021,2000,g  6.5,4.0
# From MPC 54558
P/2004 DO29 (Spacewatch-LINEAR),e,14.5322,147.3738,40.6801,7.285099,0.0501246,0.44117728,304.2308,05/19.0/2021,2000,g 13.5,2.0
# From MPC 54823
P/2004 FY140 (LINEAR),e,2.1348,326.7620,242.4087,4.903007,0.0907842,0.16831609,193.0585,05/19.0/2021,2000,g 12.5,2.0
# From MPC 53304
P/2004 R3 (LINEAR-NEAT),e,12.8107,305.4720,38.1047,4.795071,0.0938667,0.26035206,347.9771,05/19.0/2021,2000,g 14.5,4.0
# From MPC 55521
P/2004 V3 (Siding Spring),e,50.4392,356.1222,322.3440,7.141201,0.0516472,0.44633514,312.6319,05/19.0/2021,2000,g 11.5,4.0
# From MPC 75705
P/2004 V5 (LINEAR-Hill),e,19.3425,47.7816,87.7175,7.979009,0.0437301,0.44359353,260.1805,05/19.0/2021,2000,g  8.0,4.0
# From MPC 54164
P/2005 E1 (Tubbiolo),e,4.2637,335.5684,194.0673,7.040071,0.0527641,0.37514302,314.4306,05/19.0/2021,2000,g 10.0,4.0
# From MPC 54823
P/2005 GF8 (LONEOS),e,1.1913,314.7959,284.7993,5.838729,0.0698597,0.51756651,41.8152,05/19.0/2021,2000,g 11.5,4.0
# From MPC 79019
P/2005 J1 (McNaught),e,31.7620,268.8105,338.9617,3.570342,0.1460964,0.56965943,138.7132,05/19.0/2021,2000,g 16.5,4.0
# From MPC 74246
P/2005 L1 (McNaught),e,7.7386,138.2479,149.7225,3.975547,0.1243394,0.20949652,339.1456,05/19.0/2021,2000,g  9.5,4.0
# From MPC 75706
P/2005 S2 (Skiff),e,3.1357,161.2076,229.1611,8.015171,0.0434345,0.19734246,238.4073,05/19.0/2021,2000,g  7.5,4.0
# From MPC 75706
P/2005 SB216 (LONEOS),e,24.0839,1.1972,83.3662,7.130995,0.0517582,0.46364902,271.7196,05/19.0/2021,2000,g 12.0,2.0
# From MPC 55717
P/2005 T2 (Christensen),e,8.2922,260.1595,58.8322,3.846490,0.1306493,0.41637928,52.9902,05/19.0/2021,2000,g 14.5,4.0
# From MPC 73461
P/2005 T3 (Read),e,6.2239,27.7192,6.8484,7.581739,0.0472118,0.17434649,269.4240,05/19.0/2021,2000,g  9.0,4.0
# From MPC 73461
P/2005 T4 (SWAN),e,160.2079,25.7432,41.6478,9.361234,0.0344116,0.92978912,196.4913,05/19.0/2021,2000,g 15.0,4.0
# From MPC 75706
P/2005 T5 (Broughton),e,21.3596,57.0027,304.5604,7.289721,0.0500769,0.55227074,285.5188,05/19.0/2021,2000,g 11.0,4.0
# From MPC 56954
P/2005 W3 (Kowalski),e,16.4202,210.0854,200.7232,6.328922,0.0619027,0.54335982,352.2699,05/19.0/2021,2000,g 12.0,4.0
# From MPC 75706
P/2005 Y2 (McNaught),e,19.0642,94.4378,193.9251,6.384091,0.0611020,0.47064564,12.9010,05/19.0/2021,2000,g  9.0,4.0
# From MPC 56954
P/2006 F4 (Spacewatch),e,12.4202,183.8344,30.9980,3.522747,0.1490671,0.33997166,97.7201,05/19.0/2021,2000,g 15.0,4.0
# From MPC 75707
P/2006 HR30 (Siding Spring),e,31.8306,309.9007,117.2911,7.811179,0.0451470,0.84226545,237.9776,05/19.0/2021,2000,g 11.0,4.0
# From MPC 75707
P/2006 S4 (Christensen),e,39.5316,36.0821,305.1459,6.315621,0.0620983,0.50833238,345.0593,05/19.0/2021,2000,g 11.0,4.0
# From MPC 75707
P/2007 A2 (Christensen),e,26.4877,300.9076,186.7354,6.327722,0.0619203,0.55773627,325.3709,05/19.0/2021,2000,g 13.5,4.0
# From MPC 75707
P/2007 C2 (Catalina),e,8.6393,275.5317,180.0187,6.992265,0.0533061,0.47077323,265.5204,05/19.0/2021,2000,g 10.0,4.0
# From MPC 84315
C/2007 D1 (LINEAR),e,41.5017,171.2046,340.0285,1427,0.0000183,0.99381728,0.0000,06/08.6056/2007,2000,g  3.5,4.0
# From MPC 82314
P/2007 K2 (Gibbs),e,7.6327,188.6430,347.4427,7.265290,0.0503297,0.68312368,256.6997,05/19.0/2021,2000,g 14.0,4.0
# From MPC 60925
P/2007 Q2 (Gilmore),e,10.2027,172.1601,162.7768,5.652528,0.0733398,0.67011168,12.6900,05/19.0/2021,2000,g 16.0,4.0
# From MPC 75708
P/2007 R4 (Garradd),e,20.2150,87.2151,282.5970,5.934602,0.0681737,0.67020607,346.1101,05/19.0/2021,2000,g 14.5,4.0
# From MPC 73462
P/2007 S1 (Zhao),e,5.9638,141.3720,245.6245,3.815743,0.1322316,0.33957702,292.9278,05/19.0/2021,2000,g 13.0,4.0
# From MPC 61994
P/2007 T2 (Kowalski),e,9.7482,3.3746,359.6386,3.046932,0.1853147,0.78538563,190.8874,05/19.0/2021,2000,g 18.5,4.0
# From MPC 75708
P/2008 CL94 (Lemmon),e,8.3466,33.3218,80.4319,6.162615,0.0644253,0.12046755,351.9715,05/19.0/2021,2000,g  8.0,4.0
# From MPC 75709
P/2008 L2 (Hill),e,25.8617,218.0083,141.2234,6.028403,0.0665887,0.61318392,311.9146,05/19.0/2021,2000,g 12.5,4.0
# From MPC 64114
P/2008 O3 (Boattini),e,32.2700,47.5877,341.0996,8.221389,0.0418106,0.69543576,198.2967,05/19.0/2021,2000,g 13.0,4.0
# From MPC 75709
P/2008 QP20 (LINEAR-Hill),e,7.5227,322.0724,75.5386,3.553865,0.1471136,0.49184041,326.4384,05/19.0/2021,2000,g 15.5,4.0
# From MPC 66204
P/2008 WZ96 (LINEAR),e,7.1115,56.4482,341.9255,3.487533,0.1513306,0.46990013,344.9012,05/19.0/2021,2000,g 13.5,4.0
# From MPC 75710
P/2008 Y3 (McNaught),e,38.7665,262.8018,238.2125,8.046764,0.0431790,0.44546478,195.6114,05/19.0/2021,2000,g  8.5,4.0
# From MPC 75710
P/2009 B1 (Boattini),e,22.2204,297.0897,128.8800,6.736845,0.0563663,0.63483644,254.5653,05/19.0/2021,2000,g 13.0,4.0
# From MPC 66466
C/2009 G1 (STEREO),e,108.7304,120.4421,175.4203,436.6901,0.0001080,0.99739718,0.0000,04/15.8509/2009,2000,g  9.0,4.0
# From MPC 75710
P/2009 O3 (Hill),e,16.2731,183.7035,154.4170,7.769374,0.0455119,0.68773914,199.3213,05/19.0/2021,2000,g 12.5,4.0
# From MPC 68902
P/2009 Q5 (McNaught),e,40.9830,160.2731,209.0278,7.436158,0.0486050,0.60902756,207.7457,05/19.0/2021,2000,g 10.0,4.0
# From MPC112389
P/2009 T2 (La Sagra),e,27.5623,215.8182,216.3882,7.723298,0.0459198,0.76534870,191.0626,05/19.0/2021,2000,g 14.0,4.0
# From MPC 75711
